start=new Date('2022-12-01T00:00:00.000Z').valueOf();
sats=[{"CLASSIFICATION_TYPE":"U","OBJECT_TYPE":"PAYLOAD","REF_FRAME":"TEME","ELEMENT_SET_NO":"999","NORAD_CAT_ID":"51872","APOAPSIS":"541.320","MEAN_MOTION_DDOT":"0.0000000000000","SEMIMAJOR_AXIS":"6917.858","EPOCH":"2022-11-30T17:12:37.286208","RA_OF_ASC_NODE":"333.5765","CENTER_NAME":"EARTH","TIME_SYSTEM":"UTC","PERIOD":"95.437","REV_AT_EPOCH":"4271","MEAN_ANOMALY":"325.6383","OBJECT_NAME":"STARLINK-3554","INCLINATION":"53.2180","COUNTRY_CODE":"US","OBJECT_ID":"2022-022W","SITE":"AFETR","ECCENTRICITY":"0.00023080","LAUNCH_DATE":"2022-03-03","DECAY_DATE":null,"EPHEMERIS_TYPE":"0","MEAN_ELEMENT_THEORY":"SGP4","TLE_LINE2":"2 51872  53.2180 333.5765 0002308  34.4758 325.6383 15.08847172 42717","BSTAR":"0.00008699200000","MEAN_MOTION_DOT":"0.00001097","ARG_OF_PERICENTER":"34.4758","GP_ID":"219217724","TLE_LINE1":"1 51872U 22022W   22334.71709822  .00001097  00000-0  86992-4 0  9996","FILE":"3676429","RCS_SIZE":"LARGE","PERIAPSIS":"538.127","MEAN_MOTION":"15.08847172"},{"LAUNCH_DATE":"2022-03-03","DECAY_DATE":null,"SITE":"AFETR","ECCENTRICITY":"0.00024660","TLE_LINE2":"2 51873  53.2190 334.8314 0002466  32.9889 327.1256 15.08829075 42679","MEAN_MOTION_DOT":"-0.00000624","BSTAR":"-0.00002110200000","ARG_OF_PERICENTER":"32.9889","EPHEMERIS_TYPE":"0","MEAN_ELEMENT_THEORY":"SGP4","FILE":"3675646","RCS_SIZE":"LARGE","GP_ID":"219175178","TLE_LINE1":"1 51873U 22022X   22334.43374564 -.00000624  00000-0 -21102-4 0  9996","MEAN_MOTION":"15.08829075","PERIAPSIS":"538.073","OBJECT_TYPE":"PAYLOAD","REF_FRAME":"TEME","ELEMENT_SET_NO":"999","NORAD_CAT_ID":"51873","CLASSIFICATION_TYPE":"U","EPOCH":"2022-11-30T10:24:35.623296","APOAPSIS":"541.485","MEAN_MOTION_DDOT":"0.0000000000000","SEMIMAJOR_AXIS":"6917.914","MEAN_ANOMALY":"327.1256","REV_AT_EPOCH":"4267","PERIOD":"95.438","RA_OF_ASC_NODE":"334.8314","CENTER_NAME":"EARTH","TIME_SYSTEM":"UTC","OBJECT_ID":"2022-022X","COUNTRY_CODE":"US","INCLINATION":"53.2190","OBJECT_NAME":"STARLINK-3582"},{"SITE":"AFETR","ECCENTRICITY":"0.00025550","LAUNCH_DATE":"2022-03-03","DECAY_DATE":null,"EPHEMERIS_TYPE":"0","MEAN_ELEMENT_THEORY":"SGP4","TLE_LINE2":"2 51874  53.2191 335.1053 0002555  38.0862 322.0310 15.08822412 42653","ARG_OF_PERICENTER":"38.0862","MEAN_MOTION_DOT":"-0.00002113","BSTAR":"-0.00011473000000","TLE_LINE1":"1 51874U 22022Y   22334.37487497 -.00002113  00000-0 -11473-3 0  9994","GP_ID":"219175928","RCS_SIZE":"LARGE","FILE":"3675646","PERIAPSIS":"538.032","MEAN_MOTION":"15.08822412","CLASSIFICATION_TYPE":"U","OBJECT_TYPE":"PAYLOAD","REF_FRAME":"TEME","ELEMENT_SET_NO":"999","NORAD_CAT_ID":"51874","APOAPSIS":"541.567","SEMIMAJOR_AXIS":"6917.934","MEAN_MOTION_DDOT":"0.0000000000000","EPOCH":"2022-11-30T08:59:49.197408","TIME_SYSTEM":"UTC","RA_OF_ASC_NODE":"335.1053","CENTER_NAME":"EARTH","REV_AT_EPOCH":"4265","PERIOD":"95.439","MEAN_ANOMALY":"322.0310","OBJECT_NAME":"STARLINK-3574","INCLINATION":"53.2191","COUNTRY_CODE":"US","OBJECT_ID":"2022-022Y"},{"RA_OF_ASC_NODE":"334.8766","CENTER_NAME":"EARTH","TIME_SYSTEM":"UTC","PERIOD":"95.438","REV_AT_EPOCH":"4267","MEAN_ANOMALY":"323.8605","OBJECT_NAME":"STARLINK-3585","INCLINATION":"53.2175","COUNTRY_CODE":"US","OBJECT_ID":"2022-022Z","CLASSIFICATION_TYPE":"U","REF_FRAME":"TEME","OBJECT_TYPE":"PAYLOAD","NORAD_CAT_ID":"51875","ELEMENT_SET_NO":"999","APOAPSIS":"541.708","MEAN_MOTION_DDOT":"0.0000000000000","SEMIMAJOR_AXIS":"6917.910","EPOCH":"2022-11-30T10:15:22.967424","TLE_LINE1":"1 51875U 22022Z   22334.42734916 -.00001259  00000-0 -60975-4 0  9994","GP_ID":"219176179","RCS_SIZE":"LARGE","FILE":"3675646","PERIAPSIS":"537.843","MEAN_MOTION":"15.08830163","SITE":"AFETR","ECCENTRICITY":"0.00027940","LAUNCH_DATE":"2022-03-03","DECAY_DATE":null,"EPHEMERIS_TYPE":"0","MEAN_ELEMENT_THEORY":"SGP4","TLE_LINE2":"2 51875  53.2175 334.8766 0002794  36.2576 323.8605 15.08830163 42670","MEAN_MOTION_DOT":"-0.00001259","BSTAR":"-0.00006097500000","ARG_OF_PERICENTER":"36.2576"},{"TLE_LINE1":"1 51876U 22022AA  22334.30494115  .00000323  00000-0  38413-4 0  9997","GP_ID":"219176927","RCS_SIZE":"LARGE","FILE":"3675646","PERIAPSIS":"537.779","MEAN_MOTION":"15.08836264","ECCENTRICITY":"0.00028590","SITE":"AFETR","DECAY_DATE":null,"LAUNCH_DATE":"2022-03-03","MEAN_ELEMENT_THEORY":"SGP4","EPHEMERIS_TYPE":"0","ARG_OF_PERICENTER":"31.6829","MEAN_MOTION_DOT":"0.00000323","BSTAR":"0.00003841300000","TLE_LINE2":"2 51876  53.2189 335.4076 0002859  31.6829 328.4335 15.08836264 42656","CENTER_NAME":"EARTH","RA_OF_ASC_NODE":"335.4076","TIME_SYSTEM":"UTC","PERIOD":"95.438","REV_AT_EPOCH":"4265","MEAN_ANOMALY":"328.4335","OBJECT_NAME":"STARLINK-3583","INCLINATION":"53.2189","COUNTRY_CODE":"US","OBJECT_ID":"2022-022AA","CLASSIFICATION_TYPE":"U","NORAD_CAT_ID":"51876","ELEMENT_SET_NO":"999","REF_FRAME":"TEME","OBJECT_TYPE":"PAYLOAD","SEMIMAJOR_AXIS":"6917.892","MEAN_MOTION_DDOT":"0.0000000000000","APOAPSIS":"541.735","EPOCH":"2022-11-30T07:19:06.915360"},{"OBJECT_TYPE":"PAYLOAD","REF_FRAME":"TEME","NORAD_CAT_ID":"51877","ELEMENT_SET_NO":"999","CLASSIFICATION_TYPE":"U","EPOCH":"2022-11-30T06:53:57.359616","APOAPSIS":"541.378","MEAN_MOTION_DDOT":"0.0000000000000","SEMIMAJOR_AXIS":"6917.910","MEAN_ANOMALY":"318.3002","PERIOD":"95.438","REV_AT_EPOCH":"4278","RA_OF_ASC_NODE":"325.4927","TIME_SYSTEM":"UTC","CENTER_NAME":"EARTH","COUNTRY_CODE":"US","OBJECT_ID":"2022-022AB","INCLINATION":"53.2188","OBJECT_NAME":"STARLINK-3556","LAUNCH_DATE":"2022-03-03","DECAY_DATE":null,"SITE":"AFETR","ECCENTRICITY":"0.00023170","TLE_LINE2":"2 51877  53.2188 325.4927 0002317  41.8167 318.3002 15.08830394 42788","BSTAR":"0.00003316700000","MEAN_MOTION_DOT":"0.00000239","ARG_OF_PERICENTER":"41.8167","EPHEMERIS_TYPE":"0","MEAN_ELEMENT_THEORY":"SGP4","FILE":"3675646","RCS_SIZE":"LARGE","TLE_LINE1":"1 51877U 22022AB  22334.28746944  .00000239  00000-0  33167-4 0  9992","GP_ID":"219175679","MEAN_MOTION":"15.08830394","PERIAPSIS":"538.172"},{"TLE_LINE1":"1 51878U 22022AC  22334.62879252  .00000210  00000-0  31358-4 0  9999","GP_ID":"219216734","FILE":"3676429","RCS_SIZE":"LARGE","PERIAPSIS":"537.936","MEAN_MOTION":"15.08826232","ECCENTRICITY":"0.00026770","SITE":"AFETR","DECAY_DATE":null,"LAUNCH_DATE":"2022-03-03","MEAN_ELEMENT_THEORY":"SGP4","EPHEMERIS_TYPE":"0","MEAN_MOTION_DOT":"0.00000210","ARG_OF_PERICENTER":"33.2741","BSTAR":"0.00003135800000","TLE_LINE2":"2 51878  53.2183 333.9695 0002677  33.2741 326.8420 15.08826232 42708","REV_AT_EPOCH":"4270","PERIOD":"95.438","CENTER_NAME":"EARTH","RA_OF_ASC_NODE":"333.9695","TIME_SYSTEM":"UTC","MEAN_ANOMALY":"326.8420","OBJECT_NAME":"STARLINK-3575","COUNTRY_CODE":"US","OBJECT_ID":"2022-022AC","INCLINATION":"53.2183","CLASSIFICATION_TYPE":"U","NORAD_CAT_ID":"51878","ELEMENT_SET_NO":"999","REF_FRAME":"TEME","OBJECT_TYPE":"PAYLOAD","MEAN_MOTION_DDOT":"0.0000000000000","SEMIMAJOR_AXIS":"6917.922","APOAPSIS":"541.639","EPOCH":"2022-11-30T15:05:27.673728"},{"EPOCH":"2022-11-30T16:15:40.111776","MEAN_MOTION_DDOT":"0.0000000000000","SEMIMAJOR_AXIS":"6917.896","APOAPSIS":"541.432","ELEMENT_SET_NO":"999","NORAD_CAT_ID":"51879","OBJECT_TYPE":"PAYLOAD","REF_FRAME":"TEME","CLASSIFICATION_TYPE":"U","INCLINATION":"53.2186","OBJECT_ID":"2022-022AD","COUNTRY_CODE":"US","OBJECT_NAME":"STARLINK-3572","MEAN_ANOMALY":"322.2582","RA_OF_ASC_NODE":"323.7411","CENTER_NAME":"EARTH","TIME_SYSTEM":"UTC","REV_AT_EPOCH":"4284","PERIOD":"95.438","ARG_OF_PERICENTER":"37.8579","MEAN_MOTION_DOT":"0.00000509","BSTAR":"0.00005007400000","TLE_LINE2":"2 51879  53.2186 323.7411 0002415  37.8579 322.2582 15.08834889 42845","MEAN_ELEMENT_THEORY":"SGP4","EPHEMERIS_TYPE":"0","DECAY_DATE":null,"LAUNCH_DATE":"2022-03-03","ECCENTRICITY":"0.00024150","SITE":"AFETR","MEAN_MOTION":"15.08834889","PERIAPSIS":"538.090","RCS_SIZE":"LARGE","FILE":"3676429","TLE_LINE1":"1 51879U 22022AD  22334.67754759  .00000509  00000-0  50074-4 0  9996","GP_ID":"219217486"},{"MEAN_MOTION":"15.08844904","PERIAPSIS":"537.962","RCS_SIZE":"LARGE","FILE":"3676429","TLE_LINE1":"1 51880U 22022AE  22334.72542025 -.00000492  00000-0 -12777-4 0  9996","GP_ID":"219217725","TLE_LINE2":"2 51880  53.2175 333.5278 0002557  37.6363 322.4807 15.08844904 42718","MEAN_MOTION_DOT":"-0.00000492","BSTAR":"-0.00001277700000","ARG_OF_PERICENTER":"37.6363","EPHEMERIS_TYPE":"0","MEAN_ELEMENT_THEORY":"SGP4","LAUNCH_DATE":"2022-03-03","DECAY_DATE":null,"SITE":"AFETR","ECCENTRICITY":"0.00025570","COUNTRY_CODE":"US","OBJECT_ID":"2022-022AE","INCLINATION":"53.2175","OBJECT_NAME":"STARLINK-3566","MEAN_ANOMALY":"322.4807","REV_AT_EPOCH":"4271","PERIOD":"95.437","CENTER_NAME":"EARTH","RA_OF_ASC_NODE":"333.5278","TIME_SYSTEM":"UTC","EPOCH":"2022-11-30T17:24:36.309600","APOAPSIS":"541.499","SEMIMAJOR_AXIS":"6917.865","MEAN_MOTION_DDOT":"0.0000000000000","REF_FRAME":"TEME","OBJECT_TYPE":"PAYLOAD","NORAD_CAT_ID":"51880","ELEMENT_SET_NO":"999","CLASSIFICATION_TYPE":"U"},{"MEAN_ELEMENT_THEORY":"SGP4","EPHEMERIS_TYPE":"0","MEAN_MOTION_DOT":"0.00001337","BSTAR":"0.00010210000000","ARG_OF_PERICENTER":"27.6042","TLE_LINE2":"2 51881  53.2183 323.7803 0003071  27.6042 332.5112 15.08844855 42893","ECCENTRICITY":"0.00030710","SITE":"AFETR","DECAY_DATE":null,"LAUNCH_DATE":"2022-03-03","PERIAPSIS":"537.606","MEAN_MOTION":"15.08844855","TLE_LINE1":"1 51881U 22022AF  22334.67017713  .00001337  00000-0  10210-3 0  9998","GP_ID":"219216485","FILE":"3676429","RCS_SIZE":"LARGE","MEAN_MOTION_DDOT":"0.0000000000000","SEMIMAJOR_AXIS":"6917.866","APOAPSIS":"541.855","EPOCH":"2022-11-30T16:05:03.304032","CLASSIFICATION_TYPE":"U","NORAD_CAT_ID":"51881","ELEMENT_SET_NO":"999","OBJECT_TYPE":"PAYLOAD","REF_FRAME":"TEME","OBJECT_NAME":"STARLINK-3504","OBJECT_ID":"2022-022AF","COUNTRY_CODE":"US","INCLINATION":"53.2183","PERIOD":"95.437","REV_AT_EPOCH":"4289","RA_OF_ASC_NODE":"323.7803","TIME_SYSTEM":"UTC","CENTER_NAME":"EARTH","MEAN_ANOMALY":"332.5112"}];
